IRIDIUM 159             
1 43578U 18061K   24057.93743215  .00000181  00000+0  57743-4 0  9994
2 43578  86.3942  48.2635 0002198  85.4197 274.7250 14.34217101292805
IRIDIUM 180             
1 43922U 19002A   24057.86716369  .00000224  00000+0  72790-4 0  9992
2 43922  86.4024 345.2038 0002211  83.7063 276.4384 14.34218166268404
IRIDIUM 176             
1 43923U 19002B   24057.85473223  .00001808  00000+0  28272-3 0  9995
2 43923  86.6152 345.2373 0002626  88.5129 271.6389 14.72267081275465
IRIDIUM 168             
1 43924U 19002C   24058.48873632  .00000390  00000+0  13223-3 0  9999
2 43924  86.4028 344.9978 0002330  82.6185 277.5275 14.34216022268471
IRIDIUM 173             
1 43925U 19002D   24057.84812806  .00000363  00000+0  12256-3 0  9990
2 43925  86.4024 345.1888 0002122  81.9934 278.1503 14.34216818268366
IRIDIUM 169             
1 43926U 19002E   24057.90568554  .00000593  00000+0  18730-3 0  9994
2 43926  86.4261  16.7535 0001240 173.7564 186.3650 14.38604308269272
IRIDIUM 172             
1 43927U 19002F   24057.84179348  .00000240  00000+0  78735-4 0  9998
2 43927  86.4024 345.1964 0002289  82.8981 277.2475 14.34217828268370
IRIDIUM 175             
1 43928U 19002G   24057.78089436  .00001723  00000+0  26931-3 0  9997
2 43928  86.1543 324.7194 0002282  84.8774 275.2703 14.72253736275445
